KUIPER-00133            
1 65764U 25217C   25326.16673610 -.00023686  00000+0 -21389-2 0  9994
2 65764  51.8902 169.1056 0010478 322.8173 276.1181 14.94749466  5532
KUIPER-00139            
1 65765U 25217D   25326.16673610 -.00013187  00000+0 -70821-3 0  9996
2 65765  51.8729 166.4583 0006860 302.3876 129.9184 15.13670341  5319
KUIPER-00142            
1 65766U 25217E   25325.92695331  .00027895  00000+0  74855-3 0  9994
2 65766  51.8659 164.9967 0002317 258.9723 101.1003 15.37738611  8845
KUIPER-00145            
1 65767U 25217F   25326.16673610 -.00029294  00000+0 -85275-3 0  9993
2 65767  51.8694 163.9754 0004361 279.6259 257.9104 15.34592764  5778
KUIPER-00147            
1 65768U 25217G   25326.16673610 -.00908980  00000+0 -33699-1 0  9993
2 65768  51.8651 164.4823 0007137 302.8602 326.7078 15.29900816  5422
KUIPER-00148            
1 65769U 25217H   25326.16673610  .00003625  00000+0  13496-3 0  9999
2 65769  51.8619 164.7131 0008854 322.4932 202.8776 15.30054921  5274
KUIPER-00150            
1 65770U 25217J   25326.16673610 -.00653276  00000+0 -49243-1 0  9993
2 65770  51.8959 167.5975 0008054 312.9640 187.7069 15.04461019  5640
KUIPER-00151            
1 65771U 25217K   25326.16673610 -.00032224  00000+0 -13009-2 0  9990
2 65771  51.8734 164.6800 0003920 259.8328 313.8545 15.24075668  5370
